CTC2_L_00361016-03
1 56933U 22075AD  26070.40847222  .00000000  00000+0  00000-0 0  9995
2 56933  85.0000 180.0000 0000000   0.0000   0.0000 13.29142335    14
CTC2_L_00361016-04
1 56934U 26809OY  26070.40847222  .00000000  00000+0  00000-0 0  9995
2 56934  85.0000 180.0000 0000000   0.0000  90.0000 13.29142335    14
CTC2_L_00361017-01
1 56935U 25238GQ  26070.40847222  .00000000  00000+0  00000-0 0  9991
2 56935  85.0000 192.0000 0000000   0.0000 192.0000 13.29142335    11
CTC2_L_00361017-02
1 56936U 25199RL  26070.40847222  .00000000  00000+0  00000-0 0  9998
2 56936  85.0000 192.0000 0000000   0.0000 282.0000 13.29142335    12
CTC2_L_00361017-03
1 56937U 25343ZA  26070.40847222  .00000000  00000+0  00000-0 0  9990
2 56937  85.0000 192.0000 0000000   0.0000  12.0000 13.29142335    14
CTC2_L_00361017-04
1 56938U 22109C   26070.40847222  .00000000  00000+0  00000-0 0  9998
2 56938  85.0000 192.0000 0000000   0.0000 102.0000 13.29142335    15
CTC2_L_00361018-01
1 56939U 26871IP  26070.40847222  .00000000  00000+0  00000-0 0  9999
2 56939  85.0000 204.0000 0000000   0.0000 204.0000 13.29142335    13
CTC2_L_00361018-02
1 56940U 23182HO  26070.40847222  .00000000  00000+0  00000-0 0  9993
2 56940  85.0000 204.0000 0000000   0.0000 294.0000 13.29142335    14
CTC2_L_00361018-03
1 56941U 22099ZN  26070.40847222  .00000000  00000+0  00000-0 0  9990
2 56941  85.0000 204.0000 0000000   0.0000  24.0000 13.29142335    16
CTC2_L_00361018-04
1 56942U 22748QT  26070.40847222  .00000000  00000+0  00000-0 0  9992
2 56942  85.0000 204.0000 0000000   0.0000 114.0000 13.29142335    17
CTC2_L_00361019-01
1 56943U 22642FK  26070.40847222  .00000000  00000+0  00000-0 0  9996
2 56943  85.0000 216.0000 0000000   0.0000 216.0000 13.29142335    14
CTC2_L_00361019-02
1 56944U 25180KG  26070.40847222  .00000000  00000+0  00000-0 0  9997
2 56944  85.0000 216.0000 0000000   0.0000 306.0000 13.29142335    15
CTC2_L_00361019-03
1 56945U 23715NV  26070.40847222  .00000000  00000+0  00000-0 0  9990
2 56945  85.0000 216.0000 0000000   0.0000  36.0000 13.29142335    16
CTC2_L_00361019-04
1 56946U 23542IY  26070.40847222  .00000000  00000+0  00000-0 0  9999
2 56946  85.0000 216.0000 0000000   0.0000 126.0000 13.29142335    17
CTC2_L_00361020-01
1 56947U 22078GB  26070.40847222  .00000000  00000+0  00000-0 0  9993
2 56947  85.0000 228.0000 0000000   0.0000 228.0000 13.29142335    14
CTC2_L_00361020-02
1 56948U 22027QG  26070.40847222  .00000000  00000+0  00000-0 0  9998
2 56948  85.0000 228.0000 0000000   0.0000 318.0000 13.29142335    15
CTC2_L_00361020-03
1 56949U 23868OT  26070.40847222  .00000000  00000+0  00000-0 0  9993
2 56949  85.0000 228.0000 0000000   0.0000  48.0000 13.29142335    16
CTC2_L_00361020-04
1 56950U 23707NR  26070.40847222  .00000000  00000+0  00000-0 0  9997
2 56950  85.0000 228.0000 0000000   0.0000 138.0000 13.29142335    18
CTC2_L_00361021-01
1 56951U 23132UM  26070.40847222  .00000000  00000+0  00000-0 0  9990
2 56951  85.0000 240.0000 0000000   0.0000 240.0000 13.29142335    17
CTC2_L_00361021-02
1 56952U 22392VO  26070.40847222  .00000000  00000+0  00000-0 0  9998
2 56952  85.0000 240.0000 0000000   0.0000 330.0000 13.29142335    18
CTC2_L_00361021-03
1 56953U 23960JJ  26070.40847222  .00000000  00000+0  00000-0 0  9991
2 56953  85.0000 240.0000 0000000   0.0000  60.0000 13.29142335    19
CTC2_L_00361021-04
1 56954U 22055ES  26070.40847222  .00000000  00000+0  00000-0 0  9996
2 56954  85.0000 240.0000 0000000   0.0000 150.0000 13.29142335    10
CTC2_L_00361022-01
1 56955U 22867LU  26070.40847222  .00000000  00000+0  00000-0 0  9998
2 56955  85.0000 252.0000 0000000   0.0000 252.0000 13.29142335    17
CTC2_L_00361022-02
1 56956U 24040JI  26070.40847222  .00000000  00000+0  00000-0 0  9994
2 56956  85.0000 252.0000 0000000   0.0000 342.0000 13.29142335    18
CTC2_L_00361022-03
1 56957U 25890EK  26070.40847222  .00000000  00000+0  00000-0 0  9999
2 56957  85.0000 252.0000 0000000   0.0000  72.0000 13.29142335    19
CTC2_L_00361022-04
1 56958U 23870DX  26070.40847222  .00000000  00000+0  00000-0 0  9996
2 56958  85.0000 252.0000 0000000   0.0000 162.0000 13.29142335    10
CTC2_L_00361023-01
1 56959U 24750VW  26070.40847222  .00000000  00000+0  00000-0 0  9995
2 56959  85.0000 264.0000 0000000   0.0000 264.0000 13.29142335    17
CTC2_L_00361023-02
1 56960U 23554WX  26070.40847222  .00000000  00000+0  00000-0 0  9998
2 56960  85.0000 264.0000 0000000   0.0000 354.0000 13.29142335    19
CTC2_L_00361023-03
1 56961U 24973SF  26070.40847222  .00000000  00000+0  00000-0 0  9995
2 56961  85.0000 264.0000 0000000   0.0000  84.0000 13.29142335    10
CTC2_L_00361023-04
1 56962U 25719YG  26070.40847222  .00000000  00000+0  00000-0 0  9995
2 56962  85.0000 264.0000 0000000   0.0000 174.0000 13.29142335    11
CTC2_L_00361024-01
1 56963U 25676YD  26070.40847222  .00000000  00000+0  00000-0 0  9998
2 56963  85.0000 276.0000 0000000   0.0000 276.0000 13.29142335    18
CTC2_L_00361024-02
1 56964U 24119KC  26070.40847222  .00000000  00000+0  00000-0 0  9990
2 56964  85.0000 276.0000 0000000   0.0000   6.0000 13.29142335    10
CTC2_L_00361024-03
1 56965U 26123VV  26070.40847222  .00000000  00000+0  00000-0 0  9998
2 56965  85.0000 276.0000 0000000   0.0000  96.0000 13.29142335    10
CTC2_L_00361024-04
1 56966U 23938FP  26070.40847222  .00000000  00000+0  00000-0 0  9990
2 56966  85.0000 276.0000 0000000   0.0000 186.0000 13.29142335    11
CTC2_L_00361025-01
1 56967U 22969DG  26070.40847222  .00000000  00000+0  00000-0 0  9994
2 56967  85.0000 288.0000 0000000   0.0000 288.0000 13.29142335    18
CTC2_L_00361025-02
1 56968U 23729OC  26070.40847222  .00000000  00000+0  00000-0 0  9990
2 56968  85.0000 288.0000 0000000   0.0000  18.0000 13.29142335    10
CTC2_L_00361025-03
1 56969U 23465QB  26070.40847222  .00000000  00000+0  00000-0 0  9998
2 56969  85.0000 288.0000 0000000   0.0000 108.0000 13.29142335    11
CTC2_L_00361025-04
1 56970U 25575WN  26070.40847222  .00000000  00000+0  00000-0 0  9994
2 56970  85.0000 288.0000 0000000   0.0000 198.0000 13.29142335    12
CTC2_L_00361026-01
1 56971U 22286MT  26070.40847222  .00000000  00000+0  00000-0 0  9991
2 56971  85.0000 300.0000 0000000   0.0000 300.0000 13.29142335    13
CTC2_L_00361026-02
1 56972U 24862TV  26070.40847222  .00000000  00000+0  00000-0 0  9994
2 56972  85.0000 300.0000 0000000   0.0000  30.0000 13.29142335    14
CTC2_L_00361026-03
1 56973U 24750OR  26070.40847222  .00000000  00000+0  00000-0 0  9991
2 56973  85.0000 300.0000 0000000   0.0000 120.0000 13.29142335    15
CTC2_L_00361026-04
1 56974U 23412TR  26070.40847222  .00000000  00000+0  00000-0 0  9996
2 56974  85.0000 300.0000 0000000   0.0000 210.0000 13.29142335    16
CTC2_L_00361027-01
1 56975U 23543VA  26070.40847222  .00000000  00000+0  00000-0 0  9992
2 56975  85.0000 312.0000 0000000   0.0000 312.0000 13.29142335    13
CTC2_L_00361027-02
1 56976U 25746UE  26070.40847222  .00000000  00000+0  00000-0 0  9990
2 56976  85.0000 312.0000 0000000   0.0000  42.0000 13.29142335    14
CTC2_L_00361027-03
1 56977U 26432SN  26070.40847222  .00000000  00000+0  00000-0 0  9994
2 56977  85.0000 312.0000 0000000   0.0000 132.0000 13.29142335    15
CTC2_L_00361027-04
1 56978U 25589QB  26070.40847222  .00000000  00000+0  00000-0 0  9997
2 56978  85.0000 312.0000 0000000   0.0000 222.0000 13.29142335    16
CTC2_L_00361028-01
1 56979U 23843AC  26070.40847222  .00000000  00000+0  00000-0 0  9999
2 56979  85.0000 324.0000 0000000   0.0000 324.0000 13.29142335    13
CTC2_L_00361028-02
1 56980U 22026L   26070.40847222  .00000000  00000+0  00000-0 0  9993
2 56980  85.0000 324.0000 0000000   0.0000  54.0000 13.29142335    15
CTC2_L_00361028-03
1 56981U 25433UL  26070.40847222  .00000000  00000+0  00000-0 0  9999
2 56981  85.0000 324.0000 0000000   0.0000 144.0000 13.29142335    16
CTC2_L_00361028-04
1 56982U 24851KP  26070.40847222  .00000000  00000+0  00000-0 0  9993
2 56982  85.0000 324.0000 0000000   0.0000 234.0000 13.29142335    17
CTC2_L_00361029-01
1 56983U 24240LO  26070.40847222  .00000000  00000+0  00000-0 0  9996
2 56983  85.0000 336.0000 0000000   0.0000 336.0000 13.29142335    14
CTC2_L_00361029-02
1 56984U 22606G   26070.40847222  .00000000  00000+0  00000-0 0  9991
2 56984  85.0000 336.0000 0000000   0.0000  66.0000 13.29142335    15
CTC2_L_00361029-03
1 56985U 24838LU  26070.40847222  .00000000  00000+0  00000-0 0  9991
2 56985  85.0000 336.0000 0000000   0.0000 156.0000 13.29142335    16
CTC2_L_00361029-04
1 56986U 26148OG  26070.40847222  .00000000  00000+0  00000-0 0  9998
2 56986  85.0000 336.0000 0000000   0.0000 246.0000 13.29142335    17
CTC2_L_00361030-01
1 56987U 25107UE  26070.40847222  .00000000  00000+0  00000-0 0  9993
2 56987  85.0000 348.0000 0000000   0.0000 348.0000 13.29142335    14
CTC2_L_00361030-02
1 56988U 24458ZM  26070.40847222  .00000000  00000+0  00000-0 0  9992
2 56988  85.0000 348.0000 0000000   0.0000  78.0000 13.29142335    15
CTC2_L_00361030-03
1 56989U 26812A   26070.40847222  .00000000  00000+0  00000-0 0  9999
2 56989  85.0000 348.0000 0000000   0.0000 168.0000 13.29142335    16
CTC2_L_00361030-04
1 56990U 22423OL  26070.40847222  .00000000  00000+0  00000-0 0  9995
2 56990  85.0000 348.0000 0000000   0.0000 258.0000 13.29142335    18
